start=new Date('2022-01-26T00:00:00.000Z').valueOf();
sats=[{"REF_FRAME":"TEME","TLE_LINE1":"1 48324U 21036BA  22025.35378450  .00000456  00000-0  49532-4 0  9991","MEAN_ELEMENT_THEORY":"SGP4","MEAN_MOTION_DOT":"0.00000456","OBJECT_TYPE":"PAYLOAD","REV_AT_EPOCH":"4128","EPOCH":"2022-01-25T08:29:26.980800","LAUNCH_DATE":"2021-04-29","CENTER_NAME":"EARTH","APOAPSIS":"548.306","ECCENTRICITY":"0.00015760","NORAD_CAT_ID":"48324","OBJECT_NAME":"STARLINK-2527","SEMIMAJOR_AXIS":"6925.350","CLASSIFICATION_TYPE":"U","BSTAR":"0.00004953200000","INCLINATION":"53.0561","EPHEMERIS_TYPE":"0","COUNTRY_CODE":"US","DECAY_DATE":null,"RA_OF_ASC_NODE":"14.8567","FILE":"3283407","MEAN_MOTION":"15.06399539","RCS_SIZE":"LARGE","GP_ID":"194612066","PERIAPSIS":"546.124","ELEMENT_SET_NO":"999","PERIOD":"95.592","TLE_LINE2":"2 48324  53.0561  14.8567 0001576  73.3487 286.7674 15.06399539 41280","SITE":"AFETR","ARG_OF_PERICENTER":"73.3487","TIME_SYSTEM":"UTC","MEAN_MOTION_DDOT":"0.0000000000000","MEAN_ANOMALY":"286.7674","OBJECT_ID":"2021-036BA"},{"ARG_OF_PERICENTER":"63.6379","TIME_SYSTEM":"UTC","SITE":"AFETR","TLE_LINE2":"2 48325  53.0551  14.8732 0001534  63.6379 296.4768 15.06394561 41293","PERIOD":"95.592","OBJECT_ID":"2021-036BB","MEAN_ANOMALY":"296.4768","MEAN_MOTION_DDOT":"0.0000000000000","RCS_SIZE":"LARGE","MEAN_MOTION":"15.06394561","FILE":"3283407","ELEMENT_SET_NO":"999","PERIAPSIS":"546.168","GP_ID":"194612283","BSTAR":"-0.00008392600000","EPHEMERIS_TYPE":"0","INCLINATION":"53.0551","CLASSIFICATION_TYPE":"U","SEMIMAJOR_AXIS":"6925.365","OBJECT_NAME":"STARLINK-2495","NORAD_CAT_ID":"48325","APOAPSIS":"548.293","ECCENTRICITY":"0.00015340","RA_OF_ASC_NODE":"14.8732","DECAY_DATE":null,"COUNTRY_CODE":"US","LAUNCH_DATE":"2021-04-29","OBJECT_TYPE":"PAYLOAD","MEAN_MOTION_DOT":"-0.00001531","EPOCH":"2022-01-25T08:24:08.947584","REV_AT_EPOCH":"4129","TLE_LINE1":"1 48325U 21036BB  22025.35010356 -.00001531  00000-0 -83926-4 0  9992","MEAN_ELEMENT_THEORY":"SGP4","REF_FRAME":"TEME","CENTER_NAME":"EARTH"},{"PERIAPSIS":"546.350","ELEMENT_SET_NO":"999","GP_ID":"194610567","RCS_SIZE":"LARGE","MEAN_MOTION":"15.06401654","FILE":"3283407","OBJECT_ID":"2021-036BC","MEAN_ANOMALY":"278.3355","MEAN_MOTION_DDOT":"0.0000000000000","TIME_SYSTEM":"UTC","ARG_OF_PERICENTER":"81.7774","SITE":"AFETR","TLE_LINE2":"2 48326  53.0558  14.8691 0001240  81.7774 278.3355 15.06401654 41292","PERIOD":"95.592","CENTER_NAME":"EARTH","LAUNCH_DATE":"2021-04-29","EPOCH":"2022-01-25T08:18:49.976064","OBJECT_TYPE":"PAYLOAD","MEAN_MOTION_DOT":"-0.00000917","REV_AT_EPOCH":"4129","REF_FRAME":"TEME","TLE_LINE1":"1 48326U 21036BC  22025.34641176 -.00000917  00000-0 -42652-4 0  9990","MEAN_ELEMENT_THEORY":"SGP4","RA_OF_ASC_NODE":"14.8691","DECAY_DATE":null,"COUNTRY_CODE":"US","SEMIMAJOR_AXIS":"6925.343","CLASSIFICATION_TYPE":"U","BSTAR":"-0.00004265200000","INCLINATION":"53.0558","EPHEMERIS_TYPE":"0","OBJECT_NAME":"STARLINK-2498","APOAPSIS":"548.067","ECCENTRICITY":"0.00012400","NORAD_CAT_ID":"48326"},{"COUNTRY_CODE":"US","RA_OF_ASC_NODE":"14.8829","DECAY_DATE":null,"NORAD_CAT_ID":"48327","ECCENTRICITY":"0.00021210","APOAPSIS":"548.693","BSTAR":"-0.00006740900000","INCLINATION":"53.0561","EPHEMERIS_TYPE":"0","CLASSIFICATION_TYPE":"U","SEMIMAJOR_AXIS":"6925.359","OBJECT_NAME":"STARLINK-2502","CENTER_NAME":"EARTH","REV_AT_EPOCH":"4129","OBJECT_TYPE":"PAYLOAD","MEAN_MOTION_DOT":"-0.00001286","EPOCH":"2022-01-25T08:13:32.399040","MEAN_ELEMENT_THEORY":"SGP4","TLE_LINE1":"1 48327U 21036BD  22025.34273610 -.00001286  00000-0 -67409-4 0  9992","REF_FRAME":"TEME","LAUNCH_DATE":"2021-04-29","MEAN_ANOMALY":"301.1012","MEAN_MOTION_DDOT":"0.0000000000000","OBJECT_ID":"2021-036BD","TLE_LINE2":"2 48327  53.0561  14.8829 0002121  59.0185 301.1012 15.06396601 41293","PERIOD":"95.592","TIME_SYSTEM":"UTC","ARG_OF_PERICENTER":"59.0185","SITE":"AFETR","ELEMENT_SET_NO":"999","PERIAPSIS":"545.755","GP_ID":"194611312","FILE":"3283407","RCS_SIZE":"LARGE","MEAN_MOTION":"15.06396601"},{"DECAY_DATE":null,"RA_OF_ASC_NODE":"14.9040","COUNTRY_CODE":"US","OBJECT_NAME":"STARLINK-2504","CLASSIFICATION_TYPE":"U","BSTAR":"-0.00005182500000","INCLINATION":"53.0565","EPHEMERIS_TYPE":"0","SEMIMAJOR_AXIS":"6925.360","NORAD_CAT_ID":"48328","APOAPSIS":"548.335","ECCENTRICITY":"0.00016040","CENTER_NAME":"EARTH","LAUNCH_DATE":"2021-04-29","MEAN_ELEMENT_THEORY":"SGP4","TLE_LINE1":"1 48328U 21036BE  22025.33904504 -.00001053  00000-0 -51825-4 0  9992","REF_FRAME":"TEME","OBJECT_TYPE":"PAYLOAD","EPOCH":"2022-01-25T08:08:13.491456","MEAN_MOTION_DOT":"-0.00001053","REV_AT_EPOCH":"4129","OBJECT_ID":"2021-036BE","MEAN_MOTION_DDOT":"0.0000000000000","MEAN_ANOMALY":"295.6083","SITE":"AFETR","ARG_OF_PERICENTER":"64.5072","TIME_SYSTEM":"UTC","PERIOD":"95.592","TLE_LINE2":"2 48328  53.0565  14.9040 0001604  64.5072 295.6083 15.06396388 41292","GP_ID":"194611567","ELEMENT_SET_NO":"999","PERIAPSIS":"546.114","MEAN_MOTION":"15.06396388","RCS_SIZE":"LARGE","FILE":"3283407"},{"FILE":"3283589","RCS_SIZE":"LARGE","MEAN_MOTION":"15.06391146","ELEMENT_SET_NO":"999","PERIAPSIS":"545.911","GP_ID":"194618026","TLE_LINE2":"2 48329  53.0562  14.6321 0001920  63.6665 296.4521 15.06391146 41897","PERIOD":"95.593","TIME_SYSTEM":"UTC","ARG_OF_PERICENTER":"63.6665","SITE":"AFETR","MEAN_ANOMALY":"296.4521","MEAN_MOTION_DDOT":"0.0000000000000","OBJECT_ID":"2021-036BF","OBJECT_TYPE":"PAYLOAD","REV_AT_EPOCH":"4189","MEAN_MOTION_DOT":"-0.00002053","EPOCH":"2022-01-25T09:38:27.358656","TLE_LINE1":"1 48329U 21036BF  22025.40170554 -.00002053  00000-0 -11895-3 0  9994","MEAN_ELEMENT_THEORY":"SGP4","REF_FRAME":"TEME","LAUNCH_DATE":"2021-04-29","CENTER_NAME":"EARTH","NORAD_CAT_ID":"48329","APOAPSIS":"548.570","ECCENTRICITY":"0.00019200","BSTAR":"-0.00011895000000","INCLINATION":"53.0562","EPHEMERIS_TYPE":"0","CLASSIFICATION_TYPE":"U","SEMIMAJOR_AXIS":"6925.376","OBJECT_NAME":"STARLINK-2510","COUNTRY_CODE":"US","RA_OF_ASC_NODE":"14.6321","DECAY_DATE":null},{"DECAY_DATE":null,"RA_OF_ASC_NODE":"13.4657","COUNTRY_CODE":"US","OBJECT_NAME":"STARLINK-2501","BSTAR":"0.00051678000000","CLASSIFICATION_TYPE":"U","INCLINATION":"53.0557","EPHEMERIS_TYPE":"0","SEMIMAJOR_AXIS":"6925.503","NORAD_CAT_ID":"48330","APOAPSIS":"548.577","ECCENTRICITY":"0.00017460","CENTER_NAME":"EARTH","LAUNCH_DATE":"2021-04-29","TLE_LINE1":"1 48330U 21036BG  22025.66343284  .00007414  00000-0  51678-3 0  9993","MEAN_ELEMENT_THEORY":"SGP4","REF_FRAME":"TEME","REV_AT_EPOCH":"4134","OBJECT_TYPE":"PAYLOAD","MEAN_MOTION_DOT":"0.00007414","EPOCH":"2022-01-25T15:55:20.597376","OBJECT_ID":"2021-036BG","MEAN_MOTION_DDOT":"0.0000000000000","MEAN_ANOMALY":"280.0385","SITE":"AFETR","TIME_SYSTEM":"UTC","ARG_OF_PERICENTER":"80.0801","PERIOD":"95.595","TLE_LINE2":"2 48330  53.0557  13.4657 0001746  80.0801 280.0385 15.06349608 41346","GP_ID":"194642956","ELEMENT_SET_NO":"999","PERIAPSIS":"546.159","MEAN_MOTION":"15.06349608","RCS_SIZE":"LARGE","FILE":"3283711"},{"ELEMENT_SET_NO":"999","PERIAPSIS":"546.152","GP_ID":"194644207","FILE":"3283711","RCS_SIZE":"LARGE","MEAN_MOTION":"15.06397074","MEAN_ANOMALY":"288.9827","MEAN_MOTION_DDOT":"0.0000000000000","OBJECT_ID":"2021-036BH","TLE_LINE2":"2 48331  53.0575  13.4730 0001546  71.1329 288.9827 15.06397074 41341","PERIOD":"95.592","TIME_SYSTEM":"UTC","ARG_OF_PERICENTER":"71.1329","SITE":"AFETR","CENTER_NAME":"EARTH","MEAN_MOTION_DOT":"-0.00001352","OBJECT_TYPE":"PAYLOAD","REV_AT_EPOCH":"4134","EPOCH":"2022-01-25T15:50:00.468096","MEAN_ELEMENT_THEORY":"SGP4","TLE_LINE1":"1 48331U 21036BH  22025.65972764 -.00001352  00000-0 -71868-4 0  9995","REF_FRAME":"TEME","LAUNCH_DATE":"2021-04-29","COUNTRY_CODE":"US","RA_OF_ASC_NODE":"13.4730","DECAY_DATE":null,"NORAD_CAT_ID":"48331","APOAPSIS":"548.293","ECCENTRICITY":"0.00015460","CLASSIFICATION_TYPE":"U","BSTAR":"-0.00007186800000","EPHEMERIS_TYPE":"0","INCLINATION":"53.0575","SEMIMAJOR_AXIS":"6925.358","OBJECT_NAME":"STARLINK-2514"},{"CENTER_NAME":"EARTH","LAUNCH_DATE":"2021-04-29","OBJECT_TYPE":"PAYLOAD","REV_AT_EPOCH":"4134","MEAN_MOTION_DOT":"-0.00000956","EPOCH":"2022-01-25T15:48:38.670624","MEAN_ELEMENT_THEORY":"SGP4","TLE_LINE1":"1 48332U 21036BJ  22025.65878091 -.00000956  00000-0 -45290-4 0  9993","REF_FRAME":"TEME","RA_OF_ASC_NODE":"13.4827","DECAY_DATE":null,"COUNTRY_CODE":"US","BSTAR":"-0.00004529000000","EPHEMERIS_TYPE":"0","INCLINATION":"53.0545","CLASSIFICATION_TYPE":"U","SEMIMAJOR_AXIS":"6925.369","OBJECT_NAME":"STARLINK-2511","NORAD_CAT_ID":"48332","APOAPSIS":"548.294","ECCENTRICITY":"0.00015310","ELEMENT_SET_NO":"999","PERIAPSIS":"546.174","GP_ID":"194643958","RCS_SIZE":"LARGE","MEAN_MOTION":"15.06393343","FILE":"3283711","OBJECT_ID":"2021-036BJ","MEAN_ANOMALY":"296.5032","MEAN_MOTION_DDOT":"0.0000000000000","ARG_OF_PERICENTER":"63.6114","TIME_SYSTEM":"UTC","SITE":"AFETR","TLE_LINE2":"2 48332  53.0545  13.4827 0001531  63.6114 296.5032 15.06393343 41346","PERIOD":"95.593"},{"COUNTRY_CODE":"US","DECAY_DATE":null,"RA_OF_ASC_NODE":"13.5046","NORAD_CAT_ID":"48333","APOAPSIS":"548.333","ECCENTRICITY":"0.00015770","OBJECT_NAME":"STARLINK-2518","BSTAR":"-0.00004251300000","CLASSIFICATION_TYPE":"U","INCLINATION":"53.0549","EPHEMERIS_TYPE":"0","SEMIMAJOR_AXIS":"6925.376","CENTER_NAME":"EARTH","TLE_LINE1":"1 48333U 21036BK  22025.65235726 -.00000915  00000-0 -42513-4 0  9996","MEAN_ELEMENT_THEORY":"SGP4","REF_FRAME":"TEME","OBJECT_TYPE":"PAYLOAD","EPOCH":"2022-01-25T15:39:23.667264","MEAN_MOTION_DOT":"-0.00000915","REV_AT_EPOCH":"4134","LAUNCH_DATE":"2021-04-29","MEAN_MOTION_DDOT":"0.0000000000000","MEAN_ANOMALY":"293.0110","OBJECT_ID":"2021-036BK","PERIOD":"95.593","TLE_LINE2":"2 48333  53.0549  13.5046 0001577  67.1045 293.0110 15.06391150 41340","SITE":"AFETR","TIME_SYSTEM":"UTC","ARG_OF_PERICENTER":"67.1045","GP_ID":"194643206","ELEMENT_SET_NO":"999","PERIAPSIS":"546.149","FILE":"3283711","MEAN_MOTION":"15.06391150","RCS_SIZE":"LARGE"}];
